{"spkid": "50591664", "covariance": {"labels": ["e", "q", "tp", "node", "peri", "i"], "data": [["5.94600748890735E-15", "-5.274863328407904E-15", "5.410090224886447E-14", "-2.464857275617162E-13", "1.738029631119334E-13", "-8.392339704972801E-14"], ["-5.274863328407904E-15", "4.681993264504197E-15", "-4.779748977274836E-14", "2.156371765005455E-13", "-1.55833216929397E-13", "7.221113020265279E-14"], ["5.410090224886447E-14", "-4.779748977274836E-14", "9.661228462886139E-11", "1.815574559737322E-11", "5.792574910065062E-11", "1.440175838495851E-12"], ["-2.464857275617162E-13", "2.156371765005455E-13", "1.815574559737322E-11", "3.686868220654718E-9", "-3.650087244162591E-9", "8.063673753503688E-11"], ["1.738029631119334E-13", "-1.55833216929397E-13", "5.792574910065062E-11", "-3.650087244162591E-9", "3.696846645617513E-9", "-7.022798331723105E-11"], ["-8.392339704972801E-14", "7.221113020265279E-14", "1.440175838495851E-12", "8.063673753503688E-11", "-7.022798331723105E-11", "2.636853388020626E-11"]], "elements": [{"name": "e", "sigma": 7.71103591543143e-08, "title": "eccentricity", "value": ".443186529166309", "units": null, "label": "e"}, {"label": "q", "name": "q", "sigma": 6.84250923602168e-08, "units": "au", "title": "perihelion distance", "value": ".4814099521943782"}, {"sigma": 9.82915482779986e-06, "name": "tp", "units": "TDB", "title": "time of perihelion passage", "value": "2457006.793526542964", "label": "tp"}, {"label": "node", "title": "longitude of the ascending node", "value": "86.60754876798758", "units": "deg", "sigma": 6.07195867958167e-05, "name": "om"}, {"label": "peri", "sigma": 6.08016993645532e-05, "name": "w", "units": "deg", "value": "217.6921138329633", "title": "argument of perihelion"}, {"sigma": 5.13503007588137e-06, "name": "i", "units": "deg", "title": "inclination", "value": "2.930763131223082", "label": "i"}], "epoch": "2457047.5"}, "elements": [{"label": "e", "name": "e", "sigma": "7.7348E-8", "units": null, "title": "eccentricity", "value": ".443057409832098"}, {"label": "a", "value": ".8647528348349721", "title": "semi-major axis", "units": "au", "name": "a", "sigma": "2.206E-9"}, {"units": "au", "title": "perihelion distance", "value": ".4816176836880254", "name": "q", "sigma": "6.6791E-8", "label": "q"}, {"sigma": "5.1547E-6", "name": "i", "value": "2.929856511485394", "title": "inclination; angle with respect to x-y ecliptic plane", "units": "deg", "label": "i"}, {"label": "node", "units": "deg", "value": "86.11688206134752", "title": "longitude of the ascending node", "name": "om", "sigma": "6.0723E-5"}, {"label": "peri", "value": "218.323644778932", "title": "argument of perihelion", "units": "deg", "name": "w", "sigma": "6.0831E-5"}, {"title": "mean anomaly", "value": "101.6372158976216", "units": "deg", "sigma": "1.4952E-5", "name": "ma", "label": "M"}, {"units": "TDB", "value": "2461117.574771325457", "title": "time of perihelion passage", "sigma": "1.2163E-5", "name": "tp", "label": "tp"}, {"label": "period", "title": "sidereal orbital period", "value": "293.7219605946931", "units": "d", "name": "per", "sigma": "1.1239E-6"}, {"label": "n", "title": "mean motion", "value": "1.2256489071199", "units": "deg/d", "sigma": "4.69E-9", "name": "n"}, {"label": "Q", "value": "1.247887985981919", "title": "aphelion distance", "units": "au", "sigma": "3.1834E-9", "name": "ad"}], "epoch": "2461200.5"}